BEIDOU 3 (C01)          
1 36287U 10001A   23020.33452130 -.00000274  00000+0  00000+0 0  9998
2 36287   1.8963  52.3002 0002238 280.7095  47.2759  1.00269533 47681
BEIDOU 5 (C06)          
1 36828U 10036A   23019.85813245 -.00000088  00000+0  00000+0 0  9993
2 36828  54.2056 174.2513 0034726 182.8117 178.0152  1.00288996 45752
BEIDOU 6 (C04)          
1 37210U 10057A   23019.62654532 -.00000101  00000+0  00000+0 0  9995
2 37210   0.9347  52.2111 0005263 175.7184 276.4235  1.00272641 44807
BEIDOU 7 (C07)          
1 37256U 10068A   23020.05098723 -.00000175  00000+0  00000+0 0  9991
2 37256  49.8232 287.0503 0023554 207.2331 108.6125  1.00299785 44311
BEIDOU 8 (C08)          
1 37384U 11013A   23019.98660310 -.00000157  00000+0  00000+0 0  9991
2 37384  60.6076  52.1195 0025312 187.8794 338.7898  1.00295292 43195
BEIDOU 9 (C09)          
1 37763U 11038A   23020.00535461  .00000011  00000+0  00000+0 0  9990
2 37763  54.4831 176.7580 0102280 227.2608 172.3836  1.00278408 42171
BEIDOU 10 (C10)         
1 37948U 11073A   23019.63350017 -.00000135  00000+0  00000+0 0  9991
2 37948  49.9456 286.7084 0086451 221.1106 294.5668  1.00285276 40928
BEIDOU 11 (C05)         
1 38091U 12008A   23020.17321813  .00000064  00000+0  00000+0 0  9993
2 38091   2.0599  71.4284 0011669 308.4608 220.4659  1.00271226 40009
BEIDOU 12 (C11)         
1 38250U 12018A   23019.24189932 -.00000075  00000+0  00000+0 0  9994
2 38250  56.6205 346.4269 0024810 260.0357 267.3582  1.86234426 73106
BEIDOU 13 (C12)         
1 38251U 12018B   23019.75841666 -.00000077  00000+0  00000+0 0  9992
2 38251  56.5345 345.7192 0015799 263.8044 293.9861  1.86234268 73118
BEIDOU 15 (C14)         
1 38775U 12050B   23019.84210424 -.00000025  00000+0  00000+0 0  9994
2 38775  55.5339 104.4074 0012036 323.6733 125.5633  1.86231244 70497
BEIDOU 16 (C02)         
1 38953U 12059A   23020.10743951 -.00000167  00000+0  00000+0 0  9995
2 38953   1.4612  82.3499 0009786 294.0377 225.4845  1.00273608 37570
BEIDOU 17 (C31)         
1 40549U 15019A   23019.88365532 -.00000153  00000+0  00000+0 0  9991
2 40549  51.5125 310.2349 0036422 200.4912  16.9941  1.00251552 28607
BEIDOU 18 (C57)         
1 40748U 15037A   23019.31198576 -.00000077  00000+0  00000+0 0  9997
2 40748  55.7807 344.4693 0004220 338.2638 189.3714  1.86233272 50935
BEIDOU 19 (C58)         
1 40749U 15037B   23019.15566772 -.00000076  00000+0  00000+0 0  9996
2 40749  55.7853 344.4647 0007097 315.4098 241.4634  1.86233036 50926
BEIDOU 20 (C18)         
1 40938U 15053A   23019.67804355 -.00000092  00000+0  00000+0 0  9991
2 40938  51.1626 273.3834 0042875 194.2159 350.0706  1.00288962 26863
BEIDOU IGSO-6 (C13)     
1 41434U 16021A   23019.47113583 -.00000141  00000+0  00000+0 0  9998
2 41434  58.4161  50.6056 0049708 223.2261 110.2341  1.00283766 24990
BEIDOU-2 G7 (C03)       
1 41586U 16037A   23020.04011729 -.00000346  00000+0  00000+0 0  9994
2 41586   1.8645  70.3629 0008250 350.0796 183.7026  1.00272732 24313
BEIDOU-3 M1 (C19)       
1 43001U 17069A   23020.01518811 -.00000024  00000+0  00000+0 0  9998
2 43001  55.6867 104.4295 0009308 286.0270  75.6974  1.86231539 35438
BEIDOU-3 M2 (C20)       
1 43002U 17069B   23019.51596646 -.00000025  00000+0  00000+0 0  9995
2 43002  55.6863 104.4821 0006859 308.9096 120.8739  1.86231330 35417
BEIDOU-3 M3 (C27)       
1 43107U 18003A   23019.44169508 -.00000078  00000+0  00000+0 0  9993
2 43107  55.2344 345.2858 0003856  41.9376 144.5438  1.86232469 34172
BEIDOU-3 M4 (C28)       
1 43108U 18003B   23019.90959424 -.00000079  00000+0  00000+0 0  9990
2 43108  55.2289 345.2582 0004232 269.7193 273.1437  1.86231016 34187
BEIDOU-3 M5 (C21)       
1 43207U 18018A   23019.01171022 -.00000027  00000+0  00000+0 0  9991
2 43207  55.6450 104.5696 0004078 336.3194  27.1520  1.86231568 33555
BEIDOU-3 M6 (C22)       
1 43208U 18018B   23019.61012768 -.00000025  00000+0  00000+0 0  9997
2 43208  55.6455 104.5545 0006681 296.9443  63.0140  1.86231651 33565
BEIDOU-3 M7 (C29)       
1 43245U 18029A   23019.55117265 -.00000078  00000+0  00000+0 0  9999
2 43245  55.1402 343.0350 0001680 299.0892 231.3948  1.86232611 32712
BEIDOU-3 M8 (C30)       
1 43246U 18029B   23020.04094787 -.00000080  00000+0  10000-3 0  9997
2 43246  55.1361 343.0475 0004932 346.1485 199.4186  1.86232824 32714
BEIDOU IGSO-7 (C16)     
1 43539U 18057A   23019.85257551 -.00000087  00000+0  00000+0 0  9992
2 43539  55.0979 173.8156 0052105 224.8876 136.5734  1.00244169 16689
BEIDOU-3 M9 (C23)       
1 43581U 18062A   23019.89445083  .00000113  00000+0  00000+0 0  9997
2 43581  54.2206 224.6806 0002257 332.6588 326.2944  1.86231962 30451
BEIDOU-3 M10 (C24)      
1 43582U 18062B   23020.08865141  .00000111  00000+0  00000+0 0  9990
2 43582  54.2203 224.6636 0006902  29.8509 131.1899  1.86230699 30468
BEIDOU-3 M11 (C25)      
1 43602U 18067A   23019.15059978  .00000122  00000+0  00000+0 0  9999
2 43602  54.3051 223.3296 0008072  21.4770 271.6621  1.86231614 29930
BEIDOU-3 M12 (C26)      
1 43603U 18067B   23020.25127424  .00000109  00000+0  00000+0 0  9990
2 43603  54.3021 223.2584 0004928  17.5350 203.8937  1.86231573 29978
BEIDOU-3 M13 (C32)      
1 43622U 18072A   23019.88134608 -.00000024  00000+0  00000+0 0  9993
2 43622  55.6149 104.0882 0006151 277.8125  84.1902  1.86231383 29489
BEIDOU-3 M14 (C33)      
1 43623U 18072B   23019.31168497 -.00000026  00000+0  00000+0 0  9997
2 43623  55.6150 104.0998 0003701 301.5234 128.7870  1.86231388 29477
BEIDOU-3 M15 (C34)      
1 43647U 18078A   23019.10071947 -.00000077  00000+0  10000-3 0  9990
2 43647  55.0357 343.1918 0008186 358.1576 185.6813  1.86227167 28976
BEIDOU-3 M16 (C35)      
1 43648U 18078B   23019.82342596 -.00000079  00000+0  00000+0 0  9998
2 43648  55.0308 343.1719 0004665 359.3588 217.3703  1.86232201 29007
BEIDOU-3 G1 (C59)       
1 43683U 18085A   23019.62722860 -.00000268  00000+0  00000+0 0  9999
2 43683   1.0719 145.2938 0002212  29.5831 309.6673  1.00271833 15578
BEIDOU-3 M17 (C36)      
1 43706U 18093A   23019.11312756  .00000121  00000+0  00000+0 0  9994
2 43706  54.3033 224.6075 0006823 290.9688  69.0221  1.86231820 28356
BEIDOU-3 M18 (C37)      
1 43707U 18093B   23019.51388341  .00000118  00000+0  00000+0 0  9998
2 43707  54.3035 224.5852 0006846 327.7227  32.3892  1.86232317 28353
BEIDOU-3 IGSO-1 (C38)   
1 44204U 19023A   23019.40068498 -.00000200  00000+0  00000+0 0  9994
2 44204  56.8768  50.6611 0021402 207.5540 121.5020  1.00298032 13872
BEIDOU-2 G8             
1 44231U 19027A   23019.64740781 -.00000238  00000+0  00000+0 0  9997
2 44231   1.3870  80.7359 0005205 137.3046 278.3349  1.00268919 13593
BEIDOU-3 IGSO-2 (C39)   
1 44337U 19035A   23019.81229955 -.00000106  00000+0  00000+0 0  9991
2 44337  55.1291 169.8036 0029416 192.5552 166.8092  1.00291856 13211
BEIDOU-3 M23 (C45)      
1 44542U 19061A   23019.58670958  .00000118  00000+0  00000+0 0  9997
2 44542  54.5301 224.7757 0008713   3.1046 356.9638  1.86231337 22611
BEIDOU-3 M24 (C46)      
1 44543U 19061B   23019.99701986  .00000113  00000+0  00000+0 0  9994
2 44543  54.5267 224.7318 0005792 358.8258 187.9131  1.86231844 22618
BEIDOU-3 IGSO-3         
1 44709U 19073A   23019.65151826 -.00000181  00000+0  00000+0 0  9992
2 44709  56.9138 294.1374 0028336 180.0750 355.8879  1.00296813 11963
BEIDOU-3 M21            
1 44793U 19078A   23018.62618883 -.00000076  00000+0  10000-3 0  9995
2 44793  54.8838 343.2030 0006500   2.2446 177.9792  1.86232182 21456
BEIDOU-3 M22            
1 44794U 19078B   23019.88904244 -.00000080  00000+0  00000+0 0  9994
2 44794  54.8564 343.1462 0004989 353.4394 225.5113  1.86232686 21471
BEIDOU-3 M19            
1 44864U 19090A   23019.27243553 -.00000026  00000+0  00000+0 0  9998
2 44864  55.5475 104.3084 0017135 268.4834  91.2837  1.86231772 21045
BEIDOU-3 M20            
1 44865U 19090B   23019.68074566 -.00000025  00000+0  00000+0 0  9999
2 44865  55.5493 104.3273 0015180 281.5673  81.7850  1.86231810 21032
BEIDOU-3 G2             
1 45344U 20017A   23020.10743951 -.00000132  00000+0  00000+0 0  9992
2 45344   1.9887   3.7063 0000524 266.2876 327.9382  1.00270272 10794
BEIDOU-3 G3             
1 45807U 20040A   23020.04011729 -.00000343  00000+0  00000+0 0  9990
2 45807   0.9725 313.3090 0007949 339.7156 311.1423  1.00273161  9602
